#dP2022 10 26  0  0  0.00000000      97 __u+U IGS14 FIT  IAC
## 2233 259200.00000000   900.00000000 59878 0.0000000000000
+  116   C06C07C08C09C10C11C12C13C14C16C19C20C21C22C23C24C25
+        C26C27C28C29C30C32C33C34C35C36C37C38C39C40C41C42C43
+        C44C45C46E01E03E04E05E07E08E09E10E11E12E13E14E15E18
+        E19E21E24E25E26E27E30E31E33E34E36G01G02G03G04G05G06
+        G07G08G09G10G11G12G13G14G15G16G17G18G19G20G21G22G23
+        G24G25G26G27G29G30G31G32J02J03J04R01R02R03R04R05R07
+        R08R09R11R12R13R14R15R17R18R19R20R21R22R24  0  0  0
++         7  7  7  7  7  6  6  7  6  7  6  6  6  6  6  5  6
++         6  5  6  5  5  5  5  6  6  6  6  6  6  6  5  5  6
++         6  6  6  5  4  5  4  4  4  4  4  4  4  4  4  4  5
++         4  4  4  4  4  4  4  4  4  4  4  3  3  3  3  3  3
++         3  3  3  3  3  4  3  3  3  3  3  3  4  3  3  4  3
++         4  3  3  3  3  3  3  4  9  9  9  7  6  6  6  6  6
++         6  6  6  6  7  6  6  6  6  9  7  6  7  6  0  0  0
%c M  cc GPS ccc cccc cccc cccc cccc ccccc ccccc ccccc ccccc
%c cc cc ccc ccc cccc cccc cccc cccc ccccc ccccc ccccc ccccc
%f  1.2500000  1.025000000  0.00000000000  0.000000000000000
%f  0.0000000  0.000000000  0.00000000000  0.000000000000000
%i    0    0    0    0      0      0      0      0         0
%i    0    0    0    0      0      0      0      0         0
/* INFORMATION & ANALYSIS CENTER (IAC)            FINAL DATA
/* S/V CLOCKS ARE ALIGNED TO GNSS TIME                      
/* G:C1WC2W R:C1PC2P E:C1XC5X C:C2IC6I J:C1CC2S             
/* PCV:IGS14_2218 OL/AL:FES2004  NONE     YN ORB:CoN CLK:CoN
*  2022 10 26 21  0  0.00000000
PC06 -11004.991303  23253.933326 -33441.151148    884.045843
PC07 -15094.983517  38865.592844   5769.714243    301.035299
PC08    394.445563  33147.148198  26173.655601    501.783163
PC09    174.450147  24455.099488 -33959.735596   -823.786269
PC10  -8476.816427  39145.962192  12653.901237     77.898730
PC11 -14878.433478  13168.892363  19650.689463   -328.440088
PC12 -27064.308393   4247.413055   5296.020778   -466.485156
PC13   7018.846817  37220.914696  18972.870021    117.256324
PC14 -13388.708047  24427.641230   1145.816259    601.595487
PC16 -16397.432818  21351.733528 -32336.504640    124.742399
PC19   6902.718637 -25779.592597   8192.523602   -923.094932
PC20  17073.378409 -20328.408264  -8635.716449    854.453137
PC21 -17674.754664   2138.610185  21491.122842   -688.059196
PC22  -7684.840203 -16618.071091  21055.415222   -828.484790
PC23  15747.380387  23012.096061   1229.964681   -748.593944
PC24 -13416.979299   9267.309317 -22654.776868   -802.319943
PC25   3184.927005  23543.052691 -14666.409926     15.491199
PC26 -20338.125746  -7858.251297 -17407.431226    -27.098162
PC27  27671.433897   1351.248311   3299.122960     41.935507
PC28  17800.272887  11844.848278  17943.514432     28.841812
PC29   3143.017592 -16020.844291 -22635.327517     32.138254
PC30  22272.625481 -10672.725136 -12980.046893      0.711096
PC32  17640.913862  -2183.467728 -21507.055557   -742.939786
PC33  -6822.365173  25823.439365  -8072.939139   -926.068352
PC34 -21471.950942  11217.552288  13858.826399     25.501257
PC35 -16853.004245 -11957.265553 -18773.564768     59.935215
PC36  -2082.447577 -23360.086356  15139.837709   -879.755689
PC37  20305.268228   9660.415236  16559.000743   -636.115171
PC38  -6499.951184  29053.289849  29953.260353     33.824957
PC39 -20586.740291  20963.457110 -30304.178076     -0.722590
PC40 -22333.386321  35506.280391   3041.643689     -6.829018
PC41   7356.766955  17063.727208 -20777.318646   -212.527365
PC42 -17460.496663  19469.900237   9751.591677   -547.415016
PC43  -4089.216382  16094.047487  22423.756795     21.686169
PC44 -27694.401879   -526.737967  -3517.430956     94.117228
PC45 -15911.625558 -22852.105205  -1581.501047    -14.693919
PC46  12176.699790 -10854.175283  22641.500057     -8.898497
PE01  -3025.845636 -29284.278630  -3019.190844   -554.052522
PE03    143.999662  18896.586216 -22791.460708   -613.748881
PE04 -18669.474448  -6574.179082  22007.408722  -1145.174661
PE05 -18904.962401  20382.801338 -10172.967819   -130.694682
PE07  26648.024143  -9994.411651  -8150.204788   -716.454410
PE08  18641.871482   6396.170595 -22094.734929   -621.993865
PE09 -26585.897756   9963.870151   8347.026232   -707.198261
PE10 -27285.315653  -9261.529319   6736.910038   -486.448099
PE11 -24833.081093  -1262.576191  16054.022287   1609.558321
PE12 -25202.549437 -15270.487725  -2832.369439   -243.580603
PE13  25194.368634   1934.386773 -15416.835854    430.670143
PE14   9353.289274 -23119.989038 -20775.535479     38.983600
PE15  25129.018007  15338.982219   3106.619743    711.492739
PE18  -2032.334495  16273.490559  16996.616100   -815.438633
PE19   2781.613770 -19727.839412  21887.197908  -4160.981633
PE21   8599.703329 -24686.518224  13884.554457   -491.030920
PE24 -16461.084667   4499.977442 -24195.489780   -913.065143
PE25  -8757.234072  24504.528685 -14105.812775   -591.170705
PE26   9714.182919 -13113.778477 -24690.673035  -1773.093098
PE27  16255.986606  -5659.428877  24087.833195   -424.767553
PE30  13956.162821  17331.650882  19525.714567   -948.273658
PE31 -14261.196105 -16494.001658 -20002.063109   -506.673575
PE33 -10238.885757 -19602.058177 -19668.108999   -455.073331
PE34  10468.503937  19606.692243  19553.732246    -11.462350
PE36 -10482.521959  12473.756647  24715.450965   -451.702334
PG01 -22438.976881 -14541.766931    366.119239    261.291481
PG02  23087.366946  12954.462973    833.317495   -640.669118
PG03 -12021.649223 -14424.501097  18705.288984   -368.306448
PG04 -19242.847812  -4584.586167  17774.673992    -97.075247
PG05   6977.293128  23570.679777 -10073.823194   -101.910491
PG06  -6649.877344  13100.987900  22186.073590    502.184602
PG07 -22697.506621  -3272.031232 -13385.417681    294.581309
PG08 -10456.181675 -11479.465679 -21620.145887    -90.784686
PG09 -24236.512702   5820.092418   9157.795749   -277.688840
PG10  11375.142195 -17874.582314 -15663.483145     -9.211422
PG11   4992.735761  18919.737859  17981.136979    -30.796742
PG12  10868.961757  15637.194286  18291.736858   -296.910252
PG13   1278.839468  15406.993532 -21751.121729    413.344639
PG14 -13226.415845  15787.244100 -16700.686783    -90.747232
PG15  12189.346367  10913.329516 -21395.876524    -17.614334
PG16   -348.839860 -25787.389702  -5502.825485   -526.646784
PG17 -22544.916927  13444.769423   4720.032912    672.417188
PG18  21594.702341   1744.687898 -15463.732136      0.611066
PG19 -15763.744998  16063.184862  13663.574525    229.081480
PG20    380.178541  26418.389293   3756.870647    475.161845
PG21 -19897.857151 -16327.261289  -7355.694764    157.302443
PG22  12489.310173 -17357.497225  16061.637225    352.991003
PG23  14532.611463  -7047.293110 -21066.853232     -1.138997
PG24  21801.526115  15064.459385  -4253.419895     84.393831
PG25  15004.465769   3410.353539  21374.630911    386.415228
PG26   4101.330823 -25316.133827   6116.700458    233.830622
PG27   2102.035542 -16914.891864 -20479.593423    190.903937
PG29  24276.478701  -2661.790020  10498.068024   -562.659799
PG30 -15687.549254   7383.286676 -20091.715854   -537.111973
PG31   6179.271938 -14120.888863  21443.170393   -198.133714
PG32  20055.706213 -15953.092396   6722.769274   -275.965690
PJ02 -20172.367824  30237.488152 -16891.691757     -8.210978
PJ03 -29344.027539  23372.187446  24337.498991     -3.529642
PJ04 -30794.019063  27846.422582  13619.643258    112.186739
PR01 -10376.896032  21448.889272  -9106.132486     16.865889
PR02   3250.483180  12550.813165 -21945.433297    -23.118667
PR03  14695.438212  -3042.315754 -20570.561363     66.184994
PR04  17686.269304 -16606.500529  -7830.529913    162.629371
PR05  11103.538045 -21017.196582   9217.680713    101.888659
PR07 -15102.023696   3794.992541  20252.311245     43.222458
PR08 -17669.985228  16721.307606   7778.466676    -67.807440
PR09 -11992.708882 -22137.516377  -4317.884844     84.190687
PR11  -8667.149997   7253.740027 -22854.533614     23.447894
PR12   2353.902464  21823.875346 -12983.254996     22.352846
PR13  11210.799121  22741.938589   2795.914810    -28.210211
PR14  14054.103072   9738.649345  18936.681284     24.197326
PR15   8358.647735  -8243.122751  22667.982741     92.990553
PR17  25088.047952   4405.521718   1791.556994    572.598468
PR18  20819.154221  -3337.494284 -14306.837887     48.992113
PR19   7396.421272  -8912.192869 -22725.307139   -208.711888
PR20 -14454.709488 -10759.801703 -18057.739053    -80.955576
PR21 -25203.514403  -3806.803486   -118.022215   -344.737646
PR22 -20535.089263   3173.018186  14829.400705     14.935684
PR24  15274.772440  10602.724814  17494.391674    122.726509
EOF
